#dP2022  7 17 18  0  0.00000000      96 __u+U ITR00 EXT  IAC
## 2219  64800.00000000   900.00000000 59777 0.7500000000000
+  116   C06C07C08C09C10C11C12C13C14C16C19C20C21C22C23C24C25
+        C26C27C28C29C30C32C33C34C35C36C37C38C39C40C41C42C43
+        C44C45C46E01E02E03E04E05E07E08E09E10E11E12E13E14E15
+        E18E19E21E24E25E26E27E30E31E33E34E36G01G02G03G04G05
+        G06G07G08G09G10G11G12G13G14G15G16G17G18G19G20G21G22
+        G23G24G25G26G27G28G29G30G31G32J02J03R01R02R03R04R05
+        R07R08R09R11R12R13R14R15R17R18R19R20R21R24  0  0  0
++        10 10  6 10  7  8  9  9  8 10  9  7  9  9  7  9  8
++         7  9  9  8 10  8  8  8  9  9  7  8 10 10  9  9 10
++         9  7  7  8  8  8  8  7  8  8  7  8  8  8  8  7  7
++         8  7  7  8  5  8  7  8  7  9  8  7  9  7  6  9  8
++         6  6  7  7  6  7  8  8  8  7  7  8  7  7  8  7  7
++         7  8  7  6  7  6  7  8  8  8 10 11  9 10  7  7  8
++         8  9  8  9 10  8  9  8  8  9  8  7  9  8  0  0  0
%c M  cc GPS ccc cccc cccc cccc cccc ccccc ccccc ccccc ccccc
%c cc cc ccc ccc cccc cccc cccc cccc ccccc ccccc ccccc ccccc
%f  0.0000000  0.000000000  0.00000000000  0.000000000000000
%f  0.0000000  0.000000000  0.00000000000  0.000000000000000
%i    0    0    0    0      0      0      0      0         0
%i    0    0    0    0      0      0      0      0         0
/* IAC                                ULTRA-RAPID PREDICTION
/* S/V CLOCKS ARE ALIGNED TO GNSS TIME                      
/* G:C1WC2W R:C1PC2P E:C1XC5X C:C2IC6I J:C1CC2S             
/* PCV:IGS14_2215 OL/AL:FES2004  NONE     YN ORB:CoN CLK:CoN
*  2022 07 17 20 30  0.00000000
PC06 -13677.010736  39560.353292   3839.214880    415.089778
PC07  -1571.547897  31794.027777  27746.565150   -442.506455
PC08 -13997.202126  21559.812251 -33474.153477    407.958423
PC09  -9101.524479  39215.175850  11998.829822   -924.686521
PC10   4841.794866  34326.347821  24603.402276    117.554391
PC11 -16582.883267   2879.186210  22324.416189    480.407418
PC12  -8885.604408 -16407.914643  20772.317992   -574.711306
PC13  -8336.982010  23158.340875 -34167.273523     26.810463
PC14 -21371.312428  -6298.110904 -16748.312815    545.862084
PC16 -14958.651421  39231.952844   1583.627052    143.195246
PC19  17277.063625  -3135.595016  21717.811209   -231.188782
PC20  22074.522150  13390.160989  10645.932792   -963.935984
PC21 -13826.137076 -22994.665095   7635.222272     48.793196
PC22   2312.876000 -18560.692361  20698.318721   -962.901940
PC23 -13592.492784  16262.848990  18164.244498   -946.899196
PC24 -23483.936873  -5380.064553 -14101.023149   -967.742323
PC25 -26123.113322   9067.730136   3829.111080   -706.189909
PC26  -8511.460661 -14443.167000 -22320.228096    708.130393
PC27   3303.477101  23194.474398 -15177.374017    755.735440
PC28  -9492.351238  26229.296931    957.033468     91.118288
PC29  16687.465322 -14139.905808 -17339.869820    583.004503
PC30  14437.718757   7088.480849 -22814.055993    501.168902
PC32  13995.398000  22902.002922  -7654.440541   -972.364378
PC33 -17300.544883   3187.869204 -21654.771299   -189.398511
PC34 -14851.554328  -5965.700978  22845.672321   -356.651912
PC35   9312.410568 -26237.093217  -2141.098295    370.373229
PC36  26500.584810  -8095.245117  -3272.547822   -972.784795
PC37   6775.749391  15069.701325  22508.308718   -918.177185
PC38 -21477.816454  22875.199764 -28226.579461     10.791691
PC39 -16583.623230  38279.862265  -5269.114426     -0.099545
PC40  -4922.920397  27379.511486  31730.871282     -0.757782
PC41  -2684.929942  18305.426982 -20843.088483    -88.748622
PC42 -21979.971215 -14209.915190  -9605.832505   -953.308865
PC43 -16913.882526  13344.242145  17714.683893      3.469397
PC44  -4030.817468 -23241.749823  14916.502986    727.226652
PC45  13273.458526 -16219.885014 -18406.702559    811.489350
PC46  24359.774072   4232.634028  12916.356165   -437.252302
PE01   6963.513916 -15215.027978 -24410.380469   -517.071987
PE02  -6778.071115  15286.998535  24427.135113    312.570918
PE03  -3247.590326  26607.623326 -12572.104877   -580.023945
PE04  -9886.499756 -27366.356853  -5416.446403  -1073.574309
PE05 -14760.592557  10165.351389 -23553.230091   -162.055968
PE07  17516.968429  11928.947062  20678.204499   -688.408447
PE08  10054.816790  27275.970376   5620.721256   -565.360109
PE09 -17424.236723 -11881.708019 -20758.228353   -591.066682
PE10 -12583.438606 -10145.165569  24782.012235   -501.221415
PE11 -20029.683891   -797.477463  21758.231759   2974.400931
PE12  -3624.191319 -17486.803934  23598.053636    -67.308732
PE13  19576.222203   1392.349686 -22164.734628    429.850366
PE14  -6711.049571 -21995.030772   6706.541164  -1776.209606
PE15   3476.012968  17521.674725 -23605.344274    732.640571
PE18  14432.552931  23908.242234 -16345.048215  -1202.509935
PE19   4961.717790 -25248.449231  14639.857431  -5065.551161
PE21  23738.281860  -4586.781103 -17074.316860   -746.486000
PE24 -27750.137094 -10205.465461  -1597.047362   -730.334425
PE25 -23914.329868   4398.133126  16890.058999   -581.407148
PE26  23985.751285 -15944.422214  -6821.738736  -1388.510176
PE27  28060.101392   9402.739534    522.749903   -347.099351
PE30  14876.709757  17968.868532  18211.353238   -680.319835
PE31 -15846.454216 -17718.098467 -17625.821647   -500.092645
PE33  14595.469936 -23231.141884  11111.288316   -454.621448
PE34 -14394.516699  23278.160445 -11301.959514   -486.350637
PE36 -24051.780449  15424.752783   7718.175366   -403.600179
PG01  -8977.867606  19326.903320 -15933.541275    319.497678
PG02  21179.386890 -15839.224903  -2706.883329   -651.226856
PG03     23.583421  15880.389648 -21426.190598   -309.729429
PG04  -2031.511717  25803.343471  -5728.600138   -144.710371
PG05  14732.637866  -9206.685945  19959.005290    -89.500636
PG06  21199.669636  -2523.087062 -15792.578514    389.023237
PG07   7385.096601  13884.247541  21787.002944    318.917939
PG08  -6315.303358  21960.938611  13192.405415    -76.625594
PG09   6762.116315  25193.401189   4837.000248   -318.031224
PG10 -23970.503848 -11711.349780   1723.752242   -495.409631
PG11  23424.177611 -11686.736710  -4410.107543    -10.585183
PG12   3942.353203 -14923.061542 -21891.480099   -247.960002
PG13  12903.666060 -14007.155497  18279.787222    350.355847
PG14  22903.000144  13273.151950   2779.587168   -111.698393
PG15   4044.791455 -22671.681918  12535.723274    -44.637298
PG16 -19791.667755   2800.371330  17440.631896   -515.889012
PG17  12664.982935  14634.700851 -17731.940302    638.000862
PG18  -6709.819483 -13515.642801  21839.586126    110.313265
PG19  14714.441056   5199.876229 -21776.489931    185.031459
PG20  23432.084184  -2853.158068  11947.881797    502.396841
PG21 -15987.759978  19603.799348  -6156.543168    161.066443
PG22 -15002.737826  -1955.014200 -21423.067354    294.044062
PG23 -18084.170791 -15804.644221  11455.484828    -33.348936
PG24  10999.093768 -21056.516609 -11745.764973    194.335321
PG25 -10770.452126 -17713.501503 -17040.962532    350.315624
PG26 -25028.953983  -2254.864986   8984.332542    218.772152
PG27 -12914.236123  10292.151662  20494.533217    220.811612
PG28  24115.807231   8859.751968  -5721.470961    335.214760
PG29  -4493.146370 -25572.912437   5343.951526   -534.474200
PG30  16626.677743   6197.634089  19925.112181   -534.198875
PG31 -22722.264768   4093.033373 -13664.797699   -186.140356
PG32 -14695.550443 -11458.536608 -18848.663045   -178.913116
PJ02 -29196.442026  21148.633814  26844.244598     -1.815021
PJ03 -30842.826495  28079.349513  11730.140947     -0.162786
PR01   -425.452891  16471.078062 -19476.839578     11.640547
PR02  11815.546336  22340.615734  -3165.979797    524.418034
PR03  16293.325834  14017.802705  13737.815944     60.386252
PR04  11408.076348  -1712.534856  22777.547579    150.990839
PR05    437.718623 -16661.123639  19330.183128     96.396879
PR07 -16255.742957 -13577.031219 -14212.373389     38.006139
PR08 -11427.857176   1892.857326 -22671.977333    -66.245099
PR09  -9529.811314 -10093.051505 -21360.868570     66.318102
PR11 -24129.334570   4414.282251   6979.303838     33.006896
PR12 -10269.882358  10398.583712  20940.113658     19.345061
PR13   8081.705080  10165.899701  21946.099902    -24.708037
PR14  23375.001696   3714.259384   9557.591689     24.854148
PR15  23853.064583  -4553.170978  -7795.033143     94.639413
PR17  10275.564737   3108.339292 -23135.793910    544.363218
PR18  15309.222175 -13052.299861 -15704.333857     33.257418
PR19  13438.282391 -21639.930998  -1261.628207   -196.662143
PR20   1933.763033 -18471.728379  17503.731386    -74.800948
PR21 -10976.214827  -1510.151024  22971.467276   -318.200768
PR24   -661.004220  18273.838801 -17784.910768    104.080347
EOF
